KUIPER-00008            
1 63724U 25088A   25270.80841427  .00009092  00000+0  75582-3 0  9994
2 63724  51.8897 109.6436 0010636 270.2908  89.6844 14.99319267 23628
KUIPER-00009            
1 63725U 25088B   25269.75280034  .00004463  00000+0  61282-3 0  9997
2 63725  51.9007 111.5317 0011730 278.7944  81.1689 14.79993887 23507
KUIPER-00010            
1 63726U 25088C   25270.91668981 -.00846552  00000+0 -46585-1 0  9991
2 63726  51.8791  86.5389 0011091 311.2539  24.3397 15.15997955  4189
KUIPER-00011            
1 63727U 25088D   25270.91668981 -.00742265  00000+0 -76100-1 0  9994
2 63727  51.8888  90.9641 0011068 300.7677 172.5393 14.92563823  5301
KUIPER-00012            
1 63728U 25088E   25270.91269834  .00014416  00000+0  65849-3 0  9997
2 63728  51.8747  86.9963 0009818 288.5279  71.4634 15.20768898 23653
KUIPER-00013            
1 63729U 25088F   25270.89994967 -.00026329  00000+0 -34343-2 0  9999
2 63729  51.9006 107.9260 0005170 223.9684 136.0868 14.79967517 23465
KUIPER-00014            
1 63730U 25088G   25269.81774754  .00030576  00000+0  40231-2 0  9991
2 63730  51.9008 113.6766 0007953 270.4185  89.5866 14.79899205 23107
KUIPER-00015            
1 63731U 25088H   25270.89075310  .00006703  00000+0  87436-3 0  9998
2 63731  51.8979 120.8477 0009875 257.2822 102.7037 14.81480765 23556
